[
  {
    "wilaya_id": 2,
    "daira_id": 222,
    "id": 29,
    "code": "29",
    "name_ar": "أبو الحسن",
    "name": "Abou El Hassane",
    "state_name": "Chlef",
    "index": 39,
    "latitude": 36.418091,
    "longitude": 1.19842
  },
  {
    "wilaya_id": 3,
    "daira_id": 302,
    "id": 68,
    "code": "68",
    "name_ar": "بن ناصر بن شهرة",
    "name": "Benacer Benchohra",
    "state_name": "Laghouat",
    "index": 52,
    "latitude": 33.753726728532676,
    "longitude": 2.9981381362400223
  },
  {
    "wilaya_id": 3,
    "daira_id": 307,
    "id": 72,
    "code": "72",
    "name_ar": "الحويطة",
    "name": "El Haouaita",
    "state_name": "Laghouat",
    "index": 59,
    "latitude": 33.64616,
    "longitude": 2.44703
  },
  {
    "wilaya_id": 4,
    "daira_id": 425,
    "id": 91,
    "code": "91",
    "name_ar": "عين فكرون",
    "name": "Ain Fekroun",
    "state_name": "Oum El Bouaghi",
    "index": 102,
    "latitude": 35.97067,
    "longitude": 6.87443
  },
  {
    "wilaya_id": 5,
    "daira_id": 506,
    "id": 174,
    "code": "174",
    "name_ar": "تغرغار",
    "name": "Tigharghar",
    "state_name": "Batna",
    "index": 115,
    "latitude": 35.15605,
    "longitude": 5.96646
  },
  {
    "wilaya_id": 5,
    "daira_id": 509,
    "id": 153,
    "code": "153",
    "name_ar": "نقاوس",
    "name": "N Gaous",
    "state_name": "Batna",
    "index": 123,
    "latitude": 35.55366,
    "longitude": 5.61165
  },
  {
    "wilaya_id": 5,
    "daira_id": 542,
    "id": 149,
    "code": "149",
    "name_ar": "إمدوكل",
    "name": "M Doukal",
    "state_name": "Batna",
    "index": 140,
    "latitude": 35.12188,
    "longitude": 5.17712
  },
  {
    "wilaya_id": 5,
    "daira_id": 543,
    "id": 121,
    "code": "121",
    "name_ar": "عزيل عبد القادر",
    "name": "Azil Abedelkader",
    "state_name": "Batna",
    "index": 141,
    "latitude": 35.31662717152094,
    "longitude": 5.011042622361427
  },
  {
    "wilaya_id": 5,
    "daira_id": 544,
    "id": 168,
    "code": "168",
    "name_ar": "تكوت",
    "name": "T Kout",
    "state_name": "Batna",
    "index": 146,
    "latitude": 35.160025281980346,
    "longitude": 6.363592694287442
  },
  {
    "wilaya_id": 5,
    "daira_id": 551,
    "id": 160,
    "code": "160",
    "name_ar": "أولاد سلام",
    "name": "Ouled Sellem",
    "state_name": "Batna",
    "index": 158,
    "latitude": 35.84372105921347,
    "longitude": 5.808666105306751
  },
  {
    "wilaya_id": 5,
    "daira_id": 553,
    "id": 148,
    "code": "148",
    "name_ar": "لمسان",
    "name": "Lemcene",
    "state_name": "Batna",
    "index": 162,
    "latitude": 35.64361015257818,
    "longitude": 5.78967618620415
  },
  {
    "wilaya_id": 6,
    "daira_id": 602,
    "id": 214,
    "code": "214",
    "name_ar": "سمعون",
    "name": "Smaoun",
    "state_name": "Béjaïa",
    "index": 170,
    "latitude": 36.61800452898256,
    "longitude": 4.833438210651434
  },
  {
    "wilaya_id": 6,
    "daira_id": 624,
    "id": 220,
    "code": "220",
    "name_ar": "تاوريرت إغيل",
    "name": "Taourit Ighil",
    "state_name": "Béjaïa",
    "index": 187,
    "latitude": 36.728256391025155,
    "longitude": 4.73848448998817
  },
  {
    "wilaya_id": 6,
    "daira_id": 627,
    "id": 190,
    "code": "190",
    "name_ar": "بني مليكش",
    "name": "Beni-Mallikeche",
    "state_name": "Béjaïa",
    "index": 196,
    "latitude": 36.45002085005061,
    "longitude": 4.409759884227179
  },
  {
    "wilaya_id": 6,
    "daira_id": 640,
    "id": 201,
    "code": "201",
    "name_ar": "فناية الماثن",
    "name": "Fenaia Il Maten",
    "state_name": "Béjaïa",
    "index": 212,
    "latitude": 36.67112059028462,
    "longitude": 4.784357469282346
  },
  {
    "wilaya_id": 6,
    "daira_id": 644,
    "id": 198,
    "code": "198",
    "name_ar": "ذراع القايد",
    "name": "Dra El Caid",
    "state_name": "Béjaïa",
    "index": 214,
    "latitude": 36.42774950799924,
    "longitude": 5.228787363755333
  },
  {
    "wilaya_id": 6,
    "daira_id": 650,
    "id": 191,
    "code": "191",
    "name_ar": "بني معوش",
    "name": "Benimaouche",
    "state_name": "Béjaïa",
    "index": 216,
    "latitude": 36.500674810844316,
    "longitude": 4.787289782352696
  },
  {
    "wilaya_id": 7,
    "daira_id": 701,
    "id": 243,
    "code": "243",
    "name_ar": "الحاجب",
    "name": "El Hadjab",
    "state_name": "Biskra",
    "index": 218,
    "latitude": 34.78019930416471,
    "longitude": 5.601720547429599
  },
  {
    "wilaya_id": 7,
    "daira_id": 721,
    "id": 235,
    "code": "235",
    "name_ar": "بوشقرون",
    "name": "Bouchakroun",
    "state_name": "Biskra",
    "index": 234,
    "latitude": 34.73508937343875,
    "longitude": 5.480843991100721
  },
  {
    "wilaya_id": 8,
    "daira_id": 817,
    "id": 276,
    "code": "276",
    "name_ar": "مشرع هواري بومدين",
    "name": "Machraa-Houari-Boumediene",
    "state_name": "Béchar",
    "index": 253,
    "latitude": 30.93241167509207,
    "longitude": -2.7369241806432023
  },
  {
    "wilaya_id": 9,
    "daira_id": 922,
    "id": 299,
    "code": "299",
    "name_ar": "حمام ملوان",
    "name": "Hammam Elouane",
    "state_name": "Blida",
    "index": 278,
    "latitude": 36.424909506776174,
    "longitude": 3.009311891472179
  },
  {
    "wilaya_id": 10,
    "daira_id": 1013,
    "id": 353,
    "code": "353",
    "name_ar": "زبربر",
    "name": "Z'barbar (El Isseri )",
    "state_name": "Bouira",
    "index": 295,
    "latitude": 36.47782309524404,
    "longitude": 3.519696107155884
  },
  {
    "wilaya_id": 10,
    "daira_id": 1018,
    "id": 351,
    "code": "351",
    "name_ar": "تاقديت",
    "name": "Taguedite",
    "state_name": "Bouira",
    "index": 301,
    "latitude": 35.96034767235132,
    "longitude": 3.9516277325539986
  },
  {
    "wilaya_id": 10,
    "daira_id": 1037,
    "id": 339,
    "code": "339",
    "name_ar": "أمشدالة",
    "name": "M Chedallah",
    "state_name": "Bouira",
    "index": 316,
    "latitude": 36.36166209735432,
    "longitude": 4.243168432233209
  },
  {
    "wilaya_id": 11,
    "daira_id": 1101,
    "id": 355,
    "code": "355",
    "name_ar": "عين امقل",
    "name": "Ain Amguel",
    "state_name": "Tamanrasset",
    "index": 325,
    "latitude": 24.57044053198003,
    "longitude": 3.691103565502037
  },
  {
    "wilaya_id": 11,
    "daira_id": 1102,
    "id": 354,
    "code": "354",
    "name_ar": "ابلسة",
    "name": "Abelsa",
    "state_name": "Tamanrasset",
    "index": 327,
    "latitude": 22.44145515381537,
    "longitude": 3.666073711180166
  },
  {
    "wilaya_id": 12,
    "daira_id": 1203,
    "id": 391,
    "code": "391",
    "name_ar": "ثليجان",
    "name": "Telidjen",
    "state_name": "Tébessa",
    "index": 334,
    "latitude": 34.86458271484472,
    "longitude": 7.766566336866007
  },
  {
    "wilaya_id": 12,
    "daira_id": 1211,
    "id": 371,
    "code": "371",
    "name_ar": "بولحاف الدير",
    "name": "Boulhaf Dyr",
    "state_name": "Tébessa",
    "index": 343,
    "latitude": 35.507180602948054,
    "longitude": 8.09390939421693
  },
  {
    "wilaya_id": 12,
    "daira_id": 1220,
    "id": 374,
    "code": "374",
    "name_ar": "الماء الابيض",
    "name": "El Malabiod",
    "state_name": "Tébessa",
    "index": 354,
    "latitude": 35.26931444934505,
    "longitude": 8.14043010315927
  },
  {
    "wilaya_id": 12,
    "daira_id": 1221,
    "id": 388,
    "code": "388",
    "name_ar": "صفصاف الوسرى",
    "name": "Saf Saf El Ouesra",
    "state_name": "Tébessa",
    "index": 357,
    "latitude": 34.92274612178255,
    "longitude": 8.17830306470806
  },
  {
    "wilaya_id": 13,
    "daira_id": 1303,
    "id": 397,
    "code": "397",
    "name_ar": "عين تالوت",
    "name": "Ain Tellout",
    "state_name": "Tlemcen",
    "index": 360,
    "latitude": 34.74468740767092,
    "longitude": -0.9284285208004048
  },
  {
    "wilaya_id": 13,
    "daira_id": 1304,
    "id": 433,
    "code": "433",
    "name_ar": "سبعة شيوخ",
    "name": "Sebbaa Chioukh",
    "state_name": "Tlemcen",
    "index": 365,
    "latitude": 35.17108219714753,
    "longitude": -1.346245888977132
  },
  {
    "wilaya_id": 13,
    "daira_id": 1307,
    "id": 412,
    "code": "412",
    "name_ar": "دار يغمراسن",
    "name": "Dar Yaghmoracen",
    "state_name": "Tlemcen",
    "index": 368,
    "latitude": 35.10026942723803,
    "longitude": -1.7681090096934824
  },
  {
    "wilaya_id": 13,
    "daira_id": 1307,
    "id": 442,
    "code": "442",
    "name_ar": "تيانت",
    "name": "Tianet",
    "state_name": "Tlemcen",
    "index": 371,
    "latitude": 35.040089319543135,
    "longitude": -1.8286516865017435
  },
  {
    "wilaya_id": 13,
    "daira_id": 1317,
    "id": 415,
    "code": "415",
    "name_ar": "العزايل",
    "name": "Azail",
    "state_name": "Tlemcen",
    "index": 377,
    "latitude": 34.661091349430976,
    "longitude": -1.4269619791674908
  },
  {
    "wilaya_id": 13,
    "daira_id": 1318,
    "id": 440,
    "code": "440",
    "name_ar": "سوق الثلاثاء",
    "name": "Souk Tleta",
    "state_name": "Tlemcen",
    "index": 380,
    "latitude": 35.03167796503163,
    "longitude": -1.9884088288414163
  },
  {
    "wilaya_id": 13,
    "daira_id": 1344,
    "id": 422,
    "code": "422",
    "name_ar": "هنين",
    "name": "Honnaine",
    "state_name": "Tlemcen",
    "index": 403,
    "latitude": 35.15654681156487,
    "longitude": -1.6621249190493999
  },
  {
    "wilaya_id": 14,
    "daira_id": 1429,
    "id": 486,
    "code": "486",
    "name_ar": "زمالة  الأمير عبد القادر",
    "name": "Zmalet El Emir Abdelkade",
    "state_name": "Tiaret",
    "index": 443,
    "latitude": 35.035059793024836,
    "longitude": 2.3728219335803002
  },
  {
    "wilaya_id": 14,
    "daira_id": 1434,
    "id": 481,
    "code": "481",
    "name_ar": "تاقدمت",
    "name": "Tagdempt",
    "state_name": "Tiaret",
    "index": 449,
    "latitude": 35.33525,
    "longitude": 1.22469
  },
  {
    "wilaya_id": 15,
    "daira_id": 1518,
    "id": 551,
    "code": "551",
    "name_ar": "إعــكورن",
    "name": "Yakourene",
    "state_name": "Tizi Ouzou",
    "index": 472,
    "latitude": 36.739954629048555,
    "longitude": 4.465878299288291
  },
  {
    "wilaya_id": 15,
    "daira_id": 1536,
    "id": 538,
    "code": "538",
    "name_ar": "واضية",
    "name": "Ouadhias",
    "state_name": "Tizi Ouzou",
    "index": 494,
    "latitude": 36.56505133022937,
    "longitude": 4.113869705260966
  },
  {
    "wilaya_id": 15,
    "daira_id": 1550,
    "id": 541,
    "code": "541",
    "name_ar": "صوامـــع",
    "name": "Souama",
    "state_name": "Tizi Ouzou",
    "index": 516,
    "latitude": 36.673395089448924,
    "longitude": 4.349792778747963
  },
  {
    "wilaya_id": 15,
    "daira_id": 1552,
    "id": 521,
    "code": "521",
    "name_ar": "إبودرارن",
    "name": "Iboudrarene",
    "state_name": "Tizi Ouzou",
    "index": 518,
    "latitude": 36.51330044313232,
    "longitude": 4.250062300470011
  },
  {
    "wilaya_id": 16,
    "daira_id": 1609,
    "id": 604,
    "code": "604",
    "name_ar": "السحاولة",
    "name": "Sehaoula",
    "state_name": "Alger",
    "index": 533,
    "latitude": 36.685471295767044,
    "longitude": 3.0304991048771113
  },
  {
    "wilaya_id": 16,
    "daira_id": 1617,
    "id": 594,
    "code": "594",
    "name_ar": "محمد بلوزداد",
    "name": "Mohamed Belouzdad",
    "state_name": "Alger",
    "index": 548,
    "latitude": 36.75054398189213,
    "longitude": 3.0721268365175387
  },
  {
    "wilaya_id": 16,
    "daira_id": 1636,
    "id": 566,
    "code": "566",
    "name_ar": "بئر توتة",
    "name": "Bir Touta",
    "state_name": "Alger",
    "index": 556,
    "latitude": 36.64330779623444,
    "longitude": 3.0131381662796413
  },
  {
    "wilaya_id": 16,
    "daira_id": 1649,
    "id": 577,
    "code": "577",
    "name_ar": "الدويرة",
    "name": "Douira",
    "state_name": "Alger",
    "index": 568,
    "latitude": 36.66231073702918,
    "longitude": 2.9401756835017756
  },
  {
    "wilaya_id": 17,
    "daira_id": 1719,
    "id": 643,
    "code": "643",
    "name_ar": "سيدي لعجال",
    "name": "Sidi Laadjel",
    "state_name": "Djelfa",
    "index": 597,
    "latitude": 35.38584474711356,
    "longitude": 2.466204493780251
  },
  {
    "wilaya_id": 17,
    "daira_id": 1720,
    "id": 613,
    "code": "613",
    "name_ar": "عين فقه",
    "name": "Ain Fekka",
    "state_name": "Djelfa",
    "index": 598,
    "latitude": 35.44950908578986,
    "longitude": 3.5641919546630665
  },
  {
    "wilaya_id": 17,
    "daira_id": 1726,
    "id": 618,
    "code": "618",
    "name_ar": "بن يعقوب",
    "name": "Benyagoub",
    "state_name": "Djelfa",
    "index": 604,
    "latitude": 34.48725565526719,
    "longitude": 2.840614726763545
  },
  {
    "wilaya_id": 17,
    "daira_id": 1730,
    "id": 644,
    "code": "644",
    "name_ar": "تعظميت",
    "name": "Taadmit",
    "state_name": "Djelfa",
    "index": 609,
    "latitude": 34.34560461645989,
    "longitude": 2.991727079610565
  },
  {
    "wilaya_id": 18,
    "daira_id": 1804,
    "id": 660,
    "code": "660",
    "name_ar": "أراقن سويسي",
    "name": "Erraguene Souissi",
    "state_name": "Jijel",
    "index": 616,
    "latitude": 36.57314041452967,
    "longitude": 5.604105826245802
  },
  {
    "wilaya_id": 18,
    "daira_id": 1809,
    "id": 667,
    "code": "667",
    "name_ar": "أولاد يحيى خدروش",
    "name": "Ouled Yahia Khadrouch",
    "state_name": "Jijel",
    "index": 628,
    "latitude": 36.69050928758853,
    "longitude": 6.186961652591174
  },
  {
    "wilaya_id": 18,
    "daira_id": 1810,
    "id": 671,
    "code": "671",
    "name_ar": "سيدي معروف",
    "name": "Sidi Marouf",
    "state_name": "Jijel",
    "index": 630,
    "latitude": 36.64780769693583,
    "longitude": 6.275794086070915
  },
  {
    "wilaya_id": 18,
    "daira_id": 1812,
    "id": 664,
    "code": "664",
    "name_ar": "خيري واد عجول",
    "name": "Khiri Oued Adjoul",
    "state_name": "Jijel",
    "index": 636,
    "latitude": 36.868997917262384,
    "longitude": 6.154832322987703
  },
  {
    "wilaya_id": 18,
    "daira_id": 1817,
    "id": 648,
    "code": "648",
    "name_ar": "بودريعة بني  ياجيس",
    "name": "Boudria Beniyadjis",
    "state_name": "Jijel",
    "index": 637,
    "latitude": 36.59211020097125,
    "longitude": 5.781116672295444
  },
  {
    "wilaya_id": 19,
    "daira_id": 1928,
    "id": 717,
    "code": "717",
    "name_ar": "قصر الابطال",
    "name": "Kasr El Abtal",
    "state_name": "Sétif",
    "index": 674,
    "latitude": 35.97924332072498,
    "longitude": 5.213147850229029
  },
  {
    "wilaya_id": 19,
    "daira_id": 1932,
    "id": 713,
    "code": "713",
    "name_ar": "حمام السخنة",
    "name": "Hamam Soukhna",
    "state_name": "Sétif",
    "index": 680,
    "latitude": 35.975178619397546,
    "longitude": 5.845531684806575
  },
  {
    "wilaya_id": 19,
    "daira_id": 1955,
    "id": 719,
    "code": "719",
    "name_ar": "ماوكلان",
    "name": "Maouaklane",
    "state_name": "Sétif",
    "index": 699,
    "latitude": 36.40771459116743,
    "longitude": 5.0945196912218105
  },
  {
    "wilaya_id": 21,
    "daira_id": 2101,
    "id": 773,
    "code": "773",
    "name_ar": "حمادي كرومة",
    "name": "Hammadi Krouma",
    "state_name": "Skikda",
    "index": 718,
    "latitude": 36.84646941690813,
    "longitude": 6.936890792665107
  },
  {
    "wilaya_id": 21,
    "daira_id": 2103,
    "id": 762,
    "code": "762",
    "name_ar": "بوشطاطة",
    "name": "Bouchetata",
    "state_name": "Skikda",
    "index": 721,
    "latitude": 36.80768615340425,
    "longitude": 6.759154193010667
  },
  {
    "wilaya_id": 21,
    "daira_id": 2113,
    "id": 776,
    "code": "776",
    "name_ar": "خناق مايو",
    "name": "Khenag Maoune",
    "state_name": "Skikda",
    "index": 734,
    "latitude": 36.98986094016789,
    "longitude": 6.281010068858665
  },
  {
    "wilaya_id": 21,
    "daira_id": 2116,
    "id": 766,
    "code": "766",
    "name_ar": "الحروش",
    "name": "El Arrouch",
    "state_name": "Skikda",
    "index": 739,
    "latitude": 36.63005980345561,
    "longitude": 6.803681946908172
  },
  {
    "wilaya_id": 21,
    "daira_id": 2116,
    "id": 770,
    "code": "770",
    "name_ar": "مجاز الدشيش",
    "name": "Emjez Edchich",
    "state_name": "Skikda",
    "index": 740,
    "latitude": 36.731240522205276,
    "longitude": 6.7947872731120835
  },
  {
    "wilaya_id": 21,
    "daira_id": 2116,
    "id": 780,
    "code": "780",
    "name_ar": "أولاد حبابة",
    "name": "Ouled Habbaba",
    "state_name": "Skikda",
    "index": 741,
    "latitude": 36.500051544585936,
    "longitude": 6.91306293275792
  },
  {
    "wilaya_id": 21,
    "daira_id": 2116,
    "id": 787,
    "code": "787",
    "name_ar": "زردازة",
    "name": "Zerdezas",
    "state_name": "Skikda",
    "index": 743,
    "latitude": 36.590753567773405,
    "longitude": 6.927966808746425
  },
  {
    "wilaya_id": 21,
    "daira_id": 2126,
    "id": 775,
    "code": "775",
    "name_ar": "الكركرة",
    "name": "Kerkara",
    "state_name": "Skikda",
    "index": 750,
    "latitude": 36.92767964303793,
    "longitude": 6.614855949930772
  },
  {
    "wilaya_id": 21,
    "daira_id": 2127,
    "id": 778,
    "code": "778",
    "name_ar": "الولجة بولبلوط",
    "name": "Ouldja Boulbalout",
    "state_name": "Skikda",
    "index": 753,
    "latitude": 36.81712143299104,
    "longitude": 6.384448870830329
  },
  {
    "wilaya_id": 22,
    "daira_id": 2222,
    "id": 834,
    "code": "834",
    "name_ar": "تفسور",
    "name": "Tefessour",
    "state_name": "Sidi Bel Abbès",
    "index": 788,
    "latitude": 34.69071747931617,
    "longitude": -0.20035696263747285
  },
  {
    "wilaya_id": 22,
    "daira_id": 2245,
    "id": 795,
    "code": "795",
    "name_ar": "بضرابين المقراني",
    "name": "Bedrabine El Mokrani",
    "state_name": "Sidi Bel Abbès",
    "index": 800,
    "latitude": 34.99933033511758,
    "longitude": -0.8396021268504155
  },
  {
    "wilaya_id": 22,
    "daira_id": 2246,
    "id": 801,
    "code": "801",
    "name_ar": "بوخنفيس",
    "name": "Boukhanefis",
    "state_name": "Sidi Bel Abbès",
    "index": 804,
    "latitude": 35.06456981125615,
    "longitude": -0.6871709545210563
  },
  {
    "wilaya_id": 24,
    "daira_id": 2404,
    "id": 861,
    "code": "861",
    "name_ar": "برج صباط",
    "name": "Bordj Sabath",
    "state_name": "Guelma",
    "index": 822,
    "latitude": 36.4061379333545,
    "longitude": 7.027430715521754
  },
  {
    "wilaya_id": 24,
    "daira_id": 2415,
    "id": 876,
    "code": "876",
    "name_ar": "لخزارة",
    "name": "Khezaras",
    "state_name": "Guelma",
    "index": 829,
    "latitude": 36.354847756112534,
    "longitude": 7.525060514846087
  },
  {
    "wilaya_id": 24,
    "daira_id": 2425,
    "id": 881,
    "code": "881",
    "name_ar": "وادي فراغة",
    "name": "Oued Ferragha",
    "state_name": "Guelma",
    "index": 845,
    "latitude": 36.53568549690781,
    "longitude": 7.686681869822294
  },
  {
    "wilaya_id": 24,
    "daira_id": 2427,
    "id": 879,
    "code": "879",
    "name_ar": "هواري بومدين",
    "name": "Houari Boumedienne",
    "state_name": "Guelma",
    "index": 850,
    "latitude": 36.41564217468171,
    "longitude": 7.2613996834459105
  },
  {
    "wilaya_id": 26,
    "daira_id": 2602,
    "id": 904,
    "code": "904",
    "name_ar": "بن شكاو",
    "name": "Ben Chicao",
    "state_name": "Médéa",
    "index": 868,
    "latitude": 36.19322878507797,
    "longitude": 2.85364828953996
  },
  {
    "wilaya_id": 26,
    "daira_id": 2604,
    "id": 942,
    "code": "942",
    "name_ar": "أولاد امعرف",
    "name": "Ouled Emaaraf",
    "state_name": "Médéa",
    "index": 875,
    "latitude": 35.77811360957838,
    "longitude": 3.0540127000995234
  },
  {
    "wilaya_id": 26,
    "daira_id": 2604,
    "id": 951,
    "code": "951",
    "name_ar": "سيدي دامد",
    "name": "Sidi Demed",
    "state_name": "Médéa",
    "index": 876,
    "latitude": 35.82834118079783,
    "longitude": 3.3087243231644154
  },
  {
    "wilaya_id": 26,
    "daira_id": 2609,
    "id": 907,
    "code": "907",
    "name_ar": "بئر بن عابد",
    "name": "Bir Ben Laabed",
    "state_name": "Médéa",
    "index": 880,
    "latitude": 36.18475566852154,
    "longitude": 3.413228287698023
  },
  {
    "wilaya_id": 26,
    "daira_id": 2618,
    "id": 915,
    "code": "915",
    "name_ar": "شلالة العذاورة",
    "name": "Chelalet El Adhaoura",
    "state_name": "Médéa",
    "index": 884,
    "latitude": 35.922055602213156,
    "longitude": 3.399150352504416
  },
  {
    "wilaya_id": 26,
    "daira_id": 2632,
    "id": 944,
    "code": "944",
    "name_ar": "أم الجليل",
    "name": "Oum El Djellil",
    "state_name": "Médéa",
    "index": 892,
    "latitude": 35.83014156791158,
    "longitude": 2.6712525300635113
  },
  {
    "wilaya_id": 26,
    "daira_id": 2635,
    "id": 934,
    "code": "934",
    "name_ar": "مفاتحة",
    "name": "M'fatha",
    "state_name": "Médéa",
    "index": 898,
    "latitude": 35.895967386032105,
    "longitude": 2.930586379823273
  },
  {
    "wilaya_id": 26,
    "daira_id": 2638,
    "id": 912,
    "code": "912",
    "name_ar": "بوغزول",
    "name": "Boughzoul",
    "state_name": "Médéa",
    "index": 904,
    "latitude": 35.738170339005556,
    "longitude": 2.752543568058475
  },
  {
    "wilaya_id": 26,
    "daira_id": 2638,
    "id": 914,
    "code": "914",
    "name_ar": "الشهبونية",
    "name": "Chabounia",
    "state_name": "Médéa",
    "index": 905,
    "latitude": 35.57583971876081,
    "longitude": 2.599699385736958
  },
  {
    "wilaya_id": 26,
    "daira_id": 2646,
    "id": 953,
    "code": "953",
    "name_ar": "سيدي الربيع",
    "name": "Sidi Rabie",
    "state_name": "Médéa",
    "index": 914,
    "latitude": 36.282358415778006,
    "longitude": 3.3248859909880952
  },
  {
    "wilaya_id": 26,
    "daira_id": 2647,
    "id": 941,
    "code": "941",
    "name_ar": "أولاد دايد",
    "name": "Ouled Deid",
    "state_name": "Médéa",
    "index": 916,
    "latitude": 36.10433173881967,
    "longitude": 3.046651602770906
  },
  {
    "wilaya_id": 26,
    "daira_id": 2648,
    "id": 961,
    "code": "961",
    "name_ar": "ثلاث دوائر",
    "name": "Tletat Ed Douair",
    "state_name": "Médéa",
    "index": 920,
    "latitude": 35.982401280048606,
    "longitude": 3.007859271294432
  },
  {
    "wilaya_id": 26,
    "daira_id": 2652,
    "id": 923,
    "code": "923",
    "name_ar": "الحوضان",
    "name": "El Haoudane",
    "state_name": "Médéa",
    "index": 923,
    "latitude": 36.466019134741074,
    "longitude": 3.2887504333260753
  },
  {
    "wilaya_id": 27,
    "daira_id": 2707,
    "id": 987,
    "code": "987",
    "name_ar": "سيدي بلعطار",
    "name": "Sidi Belaattar",
    "state_name": "Mostaganem",
    "index": 938,
    "latitude": 36.03813534978489,
    "longitude": 0.3174018652829187
  },
  {
    "wilaya_id": 27,
    "daira_id": 2712,
    "id": 983,
    "code": "983",
    "name_ar": "أولاد مع الله",
    "name": "Ouled-Maalah",
    "state_name": "Mostaganem",
    "index": 943,
    "latitude": 36.0347651863396,
    "longitude": 0.5939504232822622
  },
  {
    "wilaya_id": 28,
    "daira_id": 2809,
    "id": 1014,
    "code": "1014",
    "name_ar": "خطوطي سد الجير",
    "name": "Khettouti Sed-El-Jir",
    "state_name": "M'Sila",
    "index": 975,
    "latitude": 35.70489301555025,
    "longitude": 4.268091260737165
  },
  {
    "wilaya_id": 28,
    "daira_id": 2816,
    "id": 1007,
    "code": "1007",
    "name_ar": "بوطي السايح",
    "name": "Bouti Sayeh",
    "state_name": "M'Sila",
    "index": 984,
    "latitude": 35.634877036523015,
    "longitude": 3.658726362865039
  },
  {
    "wilaya_id": 28,
    "daira_id": 2820,
    "id": 1032,
    "code": "1032",
    "name_ar": "ولتام",
    "name": "Oulteme",
    "state_name": "M'Sila",
    "index": 990,
    "latitude": 35.11874418752993,
    "longitude": 4.305383051818975
  },
  {
    "wilaya_id": 28,
    "daira_id": 2841,
    "id": 999,
    "code": "999",
    "name_ar": "عين الريش",
    "name": "Ain Rich",
    "state_name": "M'Sila",
    "index": 1001,
    "latitude": 34.591077620904954,
    "longitude": 4.033398275304545
  },
  {
    "wilaya_id": 29,
    "daira_id": 2902,
    "id": 1055,
    "code": "1055",
    "name_ar": "القطنة",
    "name": "El Gueitena",
    "state_name": "Mascara",
    "index": 1010,
    "latitude": 35.408614435338244,
    "longitude": -0.0761136080896326
  },
  {
    "wilaya_id": 29,
    "daira_id": 2907,
    "id": 1073,
    "code": "1073",
    "name_ar": "نسمط",
    "name": "Nesmot",
    "state_name": "Mascara",
    "index": 1019,
    "latitude": 35.25259772001215,
    "longitude": 0.40292469173363626
  },
  {
    "wilaya_id": 29,
    "daira_id": 2907,
    "id": 1088,
    "code": "1088",
    "name_ar": "زلامطة",
    "name": "Zelamta",
    "state_name": "Mascara",
    "index": 1020,
    "latitude": 35.274833425736446,
    "longitude": 0.5285820507454169
  },
  {
    "wilaya_id": 29,
    "daira_id": 2912,
    "id": 1067,
    "code": "1067",
    "name_ar": "ماقضة",
    "name": "Makhda",
    "state_name": "Mascara",
    "index": 1025,
    "latitude": 35.188156703484154,
    "longitude": 0.2741087847896788
  },
  {
    "wilaya_id": 29,
    "daira_id": 2918,
    "id": 1045,
    "code": "1045",
    "name_ar": "عين أفرص",
    "name": "Ain Frass",
    "state_name": "Mascara",
    "index": 1033,
    "latitude": 35.199761702355424,
    "longitude": -0.13924942496752393
  },
  {
    "wilaya_id": 29,
    "daira_id": 2931,
    "id": 1081,
    "code": "1081",
    "name_ar": "سيدي عبد المومن",
    "name": "Sidi Abdelmoumene",
    "state_name": "Mascara",
    "index": 1054,
    "latitude": 35.679241433396626,
    "longitude": 0.012902398233966893
  },
  {
    "wilaya_id": 31,
    "daira_id": 3107,
    "id": 1110,
    "code": "1110",
    "name_ar": "عين البية",
    "name": "Ain Biya",
    "state_name": "Oran",
    "index": 1074,
    "latitude": 35.79105702177082,
    "longitude": -0.31195622469655665
  },
  {
    "wilaya_id": 31,
    "daira_id": 3124,
    "id": 1130,
    "code": "1130",
    "name_ar": "مسرغين",
    "name": "Messerghin",
    "state_name": "Oran",
    "index": 1087,
    "latitude": 35.63548702582228,
    "longitude": -0.7481079717505726
  },
  {
    "wilaya_id": 32,
    "daira_id": 3202,
    "id": 1155,
    "code": "1155",
    "name_ar": "سيدي طيفور",
    "name": "Sidi Tiffour",
    "state_name": "El Bayadh",
    "index": 1091,
    "latitude": 33.598124032447366,
    "longitude": 1.714918250688076
  },
  {
    "wilaya_id": 32,
    "daira_id": 3206,
    "id": 1147,
    "code": "1147",
    "name_ar": "الخيثر",
    "name": "El Kheither",
    "state_name": "El Bayadh",
    "index": 1098,
    "latitude": 34.277030747560616,
    "longitude": 0.15047341657289912
  },
  {
    "wilaya_id": 34,
    "daira_id": 3409,
    "id": 1176,
    "code": "1176",
    "name_ar": "العناصر",
    "name": "El Annasseur",
    "state_name": "Bordj Bou Arreridj",
    "index": 1127,
    "latitude": 36.036266296429595,
    "longitude": 4.838358541541487
  },
  {
    "wilaya_id": 34,
    "daira_id": 3409,
    "id": 1180,
    "code": "1180",
    "name_ar": "غيلاسة",
    "name": "Ghailasa",
    "state_name": "Bordj Bou Arreridj",
    "index": 1128,
    "latitude": 35.85021671050821,
    "longitude": 4.9116089836856425
  },
  {
    "wilaya_id": 34,
    "daira_id": 3411,
    "id": 1177,
    "code": "1177",
    "name_ar": "الحمادية",
    "name": "Elhammadia",
    "state_name": "Bordj Bou Arreridj",
    "index": 1131,
    "latitude": 35.98115751297558,
    "longitude": 4.7734806960604335
  },
  {
    "wilaya_id": 34,
    "daira_id": 3415,
    "id": 1193,
    "code": "1193",
    "name_ar": "تفرق",
    "name": "Tefreg",
    "state_name": "Bordj Bou Arreridj",
    "index": 1141,
    "latitude": 36.304363831777366,
    "longitude": 4.721089026202983
  },
  {
    "wilaya_id": 35,
    "daira_id": 3502,
    "id": 1212,
    "code": "1212",
    "name_ar": "الخروبة",
    "name": "El Kharrouba",
    "state_name": "Boumerdès",
    "index": 1151,
    "latitude": 36.601731261466824,
    "longitude": 3.425846589530374
  },
  {
    "wilaya_id": 36,
    "daira_id": 3603,
    "id": 1233,
    "code": "1233",
    "name_ar": "بن مهيدي",
    "name": "Ben M Hidi",
    "state_name": "El Tarf",
    "index": 1185,
    "latitude": 36.781272221646894,
    "longitude": 7.948129015908456
  },
  {
    "wilaya_id": 38,
    "daira_id": 3806,
    "id": 1274,
    "code": "1274",
    "name_ar": "تملاحت",
    "name": "Tamellahet",
    "state_name": "Tissemsilt",
    "index": 1217,
    "latitude": 35.80342986059304,
    "longitude": 1.5984408135459998
  },
  {
    "wilaya_id": 39,
    "daira_id": 3914,
    "id": 1282,
    "code": "1282",
    "name_ar": "دوار الماء",
    "name": "Douar El Maa",
    "state_name": "El Oued",
    "index": 1241,
    "latitude": 32.633706238901794,
    "longitude": 7.773647150246705
  },
  {
    "wilaya_id": 40,
    "daira_id": 4003,
    "id": 1327,
    "code": "1327",
    "name_ar": "تاوزيانت",
    "name": "Taouzianat",
    "state_name": "Khenchela",
    "index": 1250,
    "latitude": 35.44729159984509,
    "longitude": 6.766945259045312
  },
  {
    "wilaya_id": 41,
    "daira_id": 4104,
    "id": 1334,
    "code": "1334",
    "name_ar": "الحنانشة",
    "name": "Hanencha",
    "state_name": "Souk Ahras",
    "index": 1272,
    "latitude": 36.249448366901376,
    "longitude": 7.790183258190092
  },
  {
    "wilaya_id": 41,
    "daira_id": 4104,
    "id": 1337,
    "code": "1337",
    "name_ar": "المشروحة",
    "name": "Machroha",
    "state_name": "Souk Ahras",
    "index": 1273,
    "latitude": 36.380818600594935,
    "longitude": 7.922568939794695
  },
  {
    "wilaya_id": 43,
    "daira_id": 4303,
    "id": 1400,
    "code": "1400",
    "name_ar": "وادي العثمانية",
    "name": "Oued Athmenia",
    "state_name": "Mila",
    "index": 1329,
    "latitude": 36.26927063870184,
    "longitude": 6.31922540500468
  },
  {
    "wilaya_id": 43,
    "daira_id": 4323,
    "id": 1411,
    "code": "1411",
    "name_ar": "تسالة لمطاعي",
    "name": "Tassala Lematai",
    "state_name": "Mila",
    "index": 1351,
    "latitude": 36.56992181046544,
    "longitude": 5.987080205754573
  },
  {
    "wilaya_id": 45,
    "daira_id": 4506,
    "id": 1454,
    "code": "1454",
    "name_ar": "جنين بورزق",
    "name": "Djenienne Bourezg",
    "state_name": "Naâma",
    "index": 1397,
    "latitude": 32.35550113821555,
    "longitude": -0.9197047271191034
  },
  {
    "wilaya_id": 45,
    "daira_id": 4510,
    "id": 1457,
    "code": "1457",
    "name_ar": "مكمن بن عمار",
    "name": "Makmen Ben Amar",
    "state_name": "Naâma",
    "index": 1401,
    "latitude": 33.908798723327834,
    "longitude": -0.7942006592152298
  },
  {
    "wilaya_id": 46,
    "daira_id": 4614,
    "id": 1474,
    "code": "1474",
    "name_ar": "المالح",
    "name": "El Maleh",
    "state_name": "Aïn Témouchent",
    "index": 1413,
    "latitude": 35.402585247144295,
    "longitude": -1.1093664957865186
  },
  {
    "wilaya_id": 48,
    "daira_id": 4807,
    "id": 1514,
    "code": "1514",
    "name_ar": "الحمادنة",
    "name": "El H'madna",
    "state_name": "Relizane",
    "index": 1446,
    "latitude": 35.89442583071796,
    "longitude": 0.7501683736274236
  },
  {
    "wilaya_id": 48,
    "daira_id": 4808,
    "id": 1536,
    "code": "1536",
    "name_ar": "سيدي أمحمد بن علي",
    "name": "Sidi M'hamed Benali",
    "state_name": "Relizane",
    "index": 1450,
    "latitude": 36.17790849991817,
    "longitude": 0.8688216423224846
  },
  {
    "wilaya_id": 48,
    "daira_id": 4812,
    "id": 1511,
    "code": "1511",
    "name_ar": "دار بن عبد الله",
    "name": "Dar Ben Abdelah",
    "state_name": "Relizane",
    "index": 1456,
    "latitude": 35.674246755381624,
    "longitude": 0.70129774276042
  },
  {
    "wilaya_id": 48,
    "daira_id": 4814,
    "id": 1512,
    "code": "1512",
    "name_ar": "جديوية",
    "name": "Djidiouia",
    "state_name": "Relizane",
    "index": 1458,
    "latitude": 35.961467701302695,
    "longitude": 0.8078407973245383
  },
  {
    "wilaya_id": 48,
    "daira_id": 4817,
    "id": 1507,
    "code": "1507",
    "name_ar": "بلعسل بوزقزة",
    "name": "Belaassel Bouzagza",
    "state_name": "Relizane",
    "index": 1461,
    "latitude": 35.81056799621638,
    "longitude": 0.49241310033639923
  },
  {
    "wilaya_id": 49,
    "daira_id": 3928,
    "id": 1306,
    "code": "1306",
    "name_ar": "تندلة",
    "name": "Tenedla",
    "state_name": "El Meghaier",
    "index": 1485,
    "latitude": 33.70066948993195,
    "longitude": 5.955390241660315
  },
  {
    "wilaya_id": 50,
    "daira_id": 4702,
    "id": 1495,
    "code": "1495",
    "name_ar": "المنيعة",
    "name": "El Meniaa",
    "state_name": "El Menia",
    "index": 1486,
    "latitude": 31.133456819885726,
    "longitude": 2.974146451217799
  },
  {
    "wilaya_id": 56,
    "daira_id": 3302,
    "id": 1158,
    "code": "1158",
    "name_ar": "برج الحواس",
    "name": "Bordj El Haouass",
    "state_name": "Djanet",
    "index": 1529,
    "latitude": 24.569819409036793,
    "longitude": 8.069728513160142
  },
  {
    "wilaya_id": 57,
    "daira_id": 1108,
    "id": 358,
    "code": "358",
    "name_ar": "فقارة الزوى",
    "name": "Foggaret Ezzoua",
    "state_name": "In Salah",
    "index": 1532,
    "latitude": 27.362513224066177,
    "longitude": 2.846942977226692
  },
  {
    "wilaya_id": 57,
    "daira_id": 1103,
    "id": 360,
    "code": "360",
    "name_ar": "إينغر",
    "name": "Inghar",
    "state_name": "In Salah",
    "index": 1533,
    "latitude": 26.22974564333757,
    "longitude": 1.8959194441525526
  },
  {
    "wilaya_id": 58,
    "daira_id": 1104,
    "id": 356,
    "code": "356",
    "name_ar": "عين قزام",
    "name": "Ain Guezzam",
    "state_name": "In Guezzam",
    "index": 1534,
    "latitude": 20.190640988154094,
    "longitude": 5.3389544065160095
  },
  {
    "wilaya_id": 58,
    "daira_id": 1107,
    "id": 363,
    "code": "363",
    "name_ar": "تين زواتين",
    "name": "Tin Zouatine",
    "state_name": "In Guezzam",
    "index": 1535,
    "latitude": 20.596292293789386,
    "longitude": 3.122145032861186
  }
]
